CTC2_L_00057001-01
1 10000U 25887SI  26075.70040509  .00000000  00000+0  00000-0 0  9995
2 10000  95.0000   0.0000 0000000   0.0000   0.0000 15.48880433    12
CTC2_L_00057001-02
1 10001U 22784RQ  26075.70040509  .00000000  00000+0  00000-0 0  9999
2 10001  95.0000   0.0000 0000000   0.0000  90.0000 15.48880433    12
CTC2_L_00057001-03
1 10002U 22018ZR  26075.70040509  .00000000  00000+0  00000-0 0  9990
2 10002  95.0000   0.0000 0000000   0.0000 180.0000 15.48880433    13
CTC2_L_00057001-04
1 10003U 22624AS  26075.70040509  .00000000  00000+0  00000-0 0  9994
2 10003  95.0000   0.0000 0000000   0.0000 270.0000 15.48880433    14
CTC2_L_00057002-01
1 10004U 25580DQ  26075.70040509  .00000000  00000+0  00000-0 0  9999
2 10004  95.0000  12.0000 0000000   0.0000  12.0000 15.48880433    12
CTC2_L_00057002-02
1 10005U 23103EX  26075.70040509  .00000000  00000+0  00000-0 0  9999
2 10005  95.0000  12.0000 0000000   0.0000 102.0000 15.48880433    13
CTC2_L_00057002-03
1 10006U 26482CK  26075.70040509  .00000000  00000+0  00000-0 0  9993
2 10006  95.0000  12.0000 0000000   0.0000 192.0000 15.48880433    13
CTC2_L_00057002-04
1 10007U 24445OL  26075.70040509  .00000000  00000+0  00000-0 0  9991
2 10007  95.0000  12.0000 0000000   0.0000 282.0000 15.48880433    14
CTC2_L_00057003-01
1 10008U 24899KF  26075.70040509  .00000000  00000+0  00000-0 0  9995
2 10008  95.0000  24.0000 0000000   0.0000  24.0000 15.48880433    12
CTC2_L_00057003-02
1 10009U 22901YI  26075.70040509  .00000000  00000+0  00000-0 0  9998
2 10009  95.0000  24.0000 0000000   0.0000 114.0000 15.48880433    13
CTC2_L_00057003-03
1 10010U 23697YO  26075.70040509  .00000000  00000+0  00000-0 0  9993
2 10010  95.0000  24.0000 0000000   0.0000 204.0000 15.48880433    15
CTC2_L_00057003-04
1 10011U 25264UX  26075.70040509  .00000000  00000+0  00000-0 0  9996
2 10011  95.0000  24.0000 0000000   0.0000 294.0000 15.48880433    15
CTC2_L_00057004-01
1 10012U 24937XU  26075.70040509  .00000000  00000+0  00000-0 0  9993
2 10012  95.0000  36.0000 0000000   0.0000  36.0000 15.48880433    13
CTC2_L_00057004-02
1 10013U 24018AZ  26075.70040509  .00000000  00000+0  00000-0 0  9994
2 10013  95.0000  36.0000 0000000   0.0000 126.0000 15.48880433    14
CTC2_L_00057004-03
1 10014U 26816BK  26075.70040509  .00000000  00000+0  00000-0 0  9993
2 10014  95.0000  36.0000 0000000   0.0000 216.0000 15.48880433    15
CTC2_L_00057004-04
1 10015U 26288AD  26075.70040509  .00000000  00000+0  00000-0 0  9997
2 10015  95.0000  36.0000 0000000   0.0000 306.0000 15.48880433    16
CTC2_L_00057005-01
1 10016U 22379YQ  26075.70040509  .00000000  00000+0  00000-0 0  9995
2 10016  95.0000  48.0000 0000000   0.0000  48.0000 15.48880433    13
CTC2_L_00057005-02
1 10017U 24191JV  26075.70040509  .00000000  00000+0  00000-0 0  9990
2 10017  95.0000  48.0000 0000000   0.0000 138.0000 15.48880433    14
CTC2_L_00057005-03
1 10018U 25210PP  26075.70040509  .00000000  00000+0  00000-0 0  9994
2 10018  95.0000  48.0000 0000000   0.0000 228.0000 15.48880433    15
CTC2_L_00057005-04
1 10019U 23602IH  26075.70040509  .00000000  00000+0  00000-0 0  9998
2 10019  95.0000  48.0000 0000000   0.0000 318.0000 15.48880433    16
CTC2_L_00057006-01
1 10020U 24682YH  26075.70040509  .00000000  00000+0  00000-0 0  9999
2 10020  95.0000  60.0000 0000000   0.0000  60.0000 15.48880433    16
CTC2_L_00057006-02
1 10021U 26414BC  26075.70040509  .00000000  00000+0  00000-0 0  9995
2 10021  95.0000  60.0000 0000000   0.0000 150.0000 15.48880433    17
CTC2_L_00057006-03
1 10022U 25624HY  26075.70040509  .00000000  00000+0  00000-0 0  9998
2 10022  95.0000  60.0000 0000000   0.0000 240.0000 15.48880433    18
CTC2_L_00057006-04
1 10023U 22523DP  26075.70040509  .00000000  00000+0  00000-0 0  9994
2 10023  95.0000  60.0000 0000000   0.0000 330.0000 15.48880433    19
CTC2_L_00057007-01
1 10024U 25067MP  26075.70040509  .00000000  00000+0  00000-0 0  9991
2 10024  95.0000  72.0000 0000000   0.0000  72.0000 15.48880433    16
CTC2_L_00057007-02
1 10025U 26694AI  26075.70040509  .00000000  00000+0  00000-0 0  9999
2 10025  95.0000  72.0000 0000000   0.0000 162.0000 15.48880433    17
CTC2_L_00057007-03
1 10026U 26823EM  26075.70040509  .00000000  00000+0  00000-0 0  9994
2 10026  95.0000  72.0000 0000000   0.0000 252.0000 15.48880433    18
CTC2_L_00057007-04
1 10027U 24494ED  26075.70040509  .00000000  00000+0  00000-0 0  9997
2 10027  95.0000  72.0000 0000000   0.0000 342.0000 15.48880433    19
CTC2_L_00057008-01
1 10028U 22837VV  26075.70040509  .00000000  00000+0  00000-0 0  9997
2 10028  95.0000  84.0000 0000000   0.0000  84.0000 15.48880433    16
CTC2_L_00057008-02
1 10029U 24848RH  26075.70040509  .00000000  00000+0  00000-0 0  9992
2 10029  95.0000  84.0000 0000000   0.0000 174.0000 15.48880433    17
CTC2_L_00057008-03
1 10030U 26830KB  26075.70040509  .00000000  00000+0  00000-0 0  9997
2 10030  95.0000  84.0000 0000000   0.0000 264.0000 15.48880433    19
CTC2_L_00057008-04
1 10031U 24563EQ  26075.70040509  .00000000  00000+0  00000-0 0  9999
2 10031  95.0000  84.0000 0000000   0.0000 354.0000 15.48880433    10
CTC2_L_00057009-01
1 10032U 22896OT  26075.70040509  .00000000  00000+0  00000-0 0  9997
2 10032  95.0000  96.0000 0000000   0.0000  96.0000 15.48880433    17
CTC2_L_00057009-02
1 10033U 25626FP  26075.70040509  .00000000  00000+0  00000-0 0  9992
2 10033  95.0000  96.0000 0000000   0.0000 186.0000 15.48880433    18
CTC2_L_00057009-03
1 10034U 25157JM  26075.70040509  .00000000  00000+0  00000-0 0  9992
2 10034  95.0000  96.0000 0000000   0.0000 276.0000 15.48880433    19
CTC2_L_00057009-04
1 10035U 23316IZ  26075.70040509  .00000000  00000+0  00000-0 0  9998
2 10035  95.0000  96.0000 0000000   0.0000   6.0000 15.48880433    11
CTC2_L_00057010-01
1 10036U 26138CU  26075.70040509  .00000000  00000+0  00000-0 0  9994
2 10036  95.0000 108.0000 0000000   0.0000 108.0000 15.48880433    19
CTC2_L_00057010-02
1 10037U 23804XY  26075.70040509  .00000000  00000+0  00000-0 0  9992
2 10037  95.0000 108.0000 0000000   0.0000 198.0000 15.48880433    19
CTC2_L_00057010-03
1 10038U 25778RI  26075.70040509  .00000000  00000+0  00000-0 0  9995
2 10038  95.0000 108.0000 0000000   0.0000 288.0000 15.48880433    10
CTC2_L_00057010-04
1 10039U 24717OR  26075.70040509  .00000000  00000+0  00000-0 0  9998
2 10039  95.0000 108.0000 0000000   0.0000  18.0000 15.48880433    12
CTC2_L_00057011-01
1 10040U 26746GO  26075.70040509  .00000000  00000+0  00000-0 0  9994
2 10040  95.0000 120.0000 0000000   0.0000 120.0000 15.48880433    12
CTC2_L_00057011-02
1 10041U 24238QS  26075.70040509  .00000000  00000+0  00000-0 0  9999
2 10041  95.0000 120.0000 0000000   0.0000 210.0000 15.48880433    13
CTC2_L_00057011-03
1 10042U 24375RH  26075.70040509  .00000000  00000+0  00000-0 0  9992
2 10042  95.0000 120.0000 0000000   0.0000 300.0000 15.48880433    14
CTC2_L_00057011-04
1 10043U 24221YJ  26075.70040509  .00000000  00000+0  00000-0 0  9993
2 10043  95.0000 120.0000 0000000   0.0000  30.0000 15.48880433    15
CTC2_L_00057012-01
1 10044U 23145SC  26075.70040509  .00000000  00000+0  00000-0 0  9998
2 10044  95.0000 132.0000 0000000   0.0000 132.0000 15.48880433    12
CTC2_L_00057012-02
1 10045U 24452EA  26075.70040509  .00000000  00000+0  00000-0 0  9991
2 10045  95.0000 132.0000 0000000   0.0000 222.0000 15.48880433    13
CTC2_L_00057012-03
1 10046U 22864HB  26075.70040509  .00000000  00000+0  00000-0 0  9997
2 10046  95.0000 132.0000 0000000   0.0000 312.0000 15.48880433    14
CTC2_L_00057012-04
1 10047U 22094VR  26075.70040509  .00000000  00000+0  00000-0 0  9993
2 10047  95.0000 132.0000 0000000   0.0000  42.0000 15.48880433    15
CTC2_L_00057013-01
1 10048U 22684BX  26075.70040509  .00000000  00000+0  00000-0 0  9999
2 10048  95.0000 144.0000 0000000   0.0000 144.0000 15.48880433    12
CTC2_L_00057013-02
1 10049U 25531GO  26075.70040509  .00000000  00000+0  00000-0 0  9994
2 10049  95.0000 144.0000 0000000   0.0000 234.0000 15.48880433    13
CTC2_L_00057013-03
1 10050U 25455BI  26075.70040509  .00000000  00000+0  00000-0 0  9991
2 10050  95.0000 144.0000 0000000   0.0000 324.0000 15.48880433    15
CTC2_L_00057013-04
1 10051U 22023QO  26075.70040509  .00000000  00000+0  00000-0 0  9990
2 10051  95.0000 144.0000 0000000   0.0000  54.0000 15.48880433    16
CTC2_L_00057014-01
1 10052U 22479RS  26075.70040509  .00000000  00000+0  00000-0 0  9996
2 10052  95.0000 156.0000 0000000   0.0000 156.0000 15.48880433    13
CTC2_L_00057014-02
1 10053U 22394XD  26075.70040509  .00000000  00000+0  00000-0 0  9993
2 10053  95.0000 156.0000 0000000   0.0000 246.0000 15.48880433    14
CTC2_L_00057014-03
1 10054U 25591ZE  26075.70040509  .00000000  00000+0  00000-0 0  9996
2 10054  95.0000 156.0000 0000000   0.0000 336.0000 15.48880433    15
CTC2_L_00057014-04
1 10055U 22817SQ  26075.70040509  .00000000  00000+0  00000-0 0  9995
2 10055  95.0000 156.0000 0000000   0.0000  66.0000 15.48880433    16
CTC2_L_00057015-01
1 10056U 24241BJ  26075.70040509  .00000000  00000+0  00000-0 0  9999
2 10056  95.0000 168.0000 0000000   0.0000 168.0000 15.48880433    13
CTC2_L_00057015-02
1 10057U 25150VC  26075.70040509  .00000000  00000+0  00000-0 0  9990
2 10057  95.0000 168.0000 0000000   0.0000 258.0000 15.48880433    14
CTC2_L_00057015-03
1 10058U 22614S   26075.70040509  .00000000  00000+0  00000-0 0  9993
2 10058  95.0000 168.0000 0000000   0.0000 348.0000 15.48880433    15
CTC2_L_00057015-04
1 10059U 23806LW  26075.70040509  .00000000  00000+0  00000-0 0  9998
2 10059  95.0000 168.0000 0000000   0.0000  78.0000 15.48880433    16
CTC2_L_00057016-01
1 10060U 26644Q   26075.70040509  .00000000  00000+0  00000-0 0  9993
2 10060  95.0000 180.0000 0000000   0.0000 180.0000 15.48880433    16
CTC2_L_00057016-02
1 10061U 22094LE  26075.70040509  .00000000  00000+0  00000-0 0  9999
2 10061  95.0000 180.0000 0000000   0.0000 270.0000 15.48880433    17
